ORBCOMM-X               
1 21576U 91050C   25269.45488796  .00000675  00000+0  21304-3 0  9991
2 21576  98.3333 333.9455 0002694 226.3056 133.7912 14.43336668796720
ORBCOMM FM01            
1 23545U 95017A   25269.19595856  .00013653  00000+0  13745-2 0  9992
2 23545  69.9634 182.0590 0003998 209.4712 150.6219 14.91288815627564
ORBCOMM FM02            
1 23546U 95017B   25269.13927626  .00016178  00000+0  15798-2 0  9996
2 23546  69.9649 201.2208 0005025 199.6259 160.4704 14.92452558627218
ORBCOMM FM08            
1 25112U 97084A   25269.26115727  .00003719  00000+0  10705-2 0  9998
2 25112  45.0126 242.5569 0006290  18.8785 341.2299 14.46139598456003
ORBCOMM FM10            
1 25113U 97084B   25269.39573174  .00003787  00000+0  10944-2 0  9997
2 25113  45.0138 244.4726 0006037 345.1656  14.9017 14.45913334631166
ORBCOMM FM11            
1 25114U 97084C   25269.41787625  .00003246  00000+0  94872-3 0  9992
2 25114  45.0123 245.1839 0006751 348.7698  11.3001 14.45657837456120
ORBCOMM FM12            
1 25115U 97084D   25269.37895109  .00003233  00000+0  94494-3 0  9991
2 25115  45.0129 245.1108 0005984 343.3055  16.7598 14.45676316455910
ORBCOMM FM09            
1 25116U 97084E   25269.42028560  .00003463  00000+0  10119-2 0  9993
2 25116  45.0133 245.9495 0007390 338.6399  21.4143 14.45539189456123
